CCSDS_OEM_VERS = 1.0
CREATION_DATE  = 2017-05-11T11:08:30
ORIGINATOR     = GMAT USER

META_START
OBJECT_NAME          = MOPSSat_alt_35785_km_RAAN_0_161
OBJECT_ID            = SatId
CENTER_NAME          = Earth
REF_FRAME            = EME2000
TIME_SYSTEM          = UTC
START_TIME           = 2017-01-01T00:00:00.000
USEABLE_START_TIME   = 2017-01-01T00:00:00.000
USEABLE_STOP_TIME    = 2017-01-02T00:00:00.000
STOP_TIME            = 2017-01-02T00:00:00.000
INTERPOLATION        = Lagrange
INTERPOLATION_DEGREE = 7 
META_STOP


                                                                                   

2017-01-01T19:42:30.000  -3.076894645385873e+04  -3.344031572258136e+04   3.765817371892062e+00   2.828088792942646e+00  -2.964347157521829e-01  -5.334362541328935e-05
2017-01-01T19:42:40.000  -3.074065903041040e+04  -3.344327296412024e+04   3.765283100808280e+00   2.829395994595544e+00  -2.950133111691631e-01  -5.351062128192374e-05
2017-01-01T19:42:50.000  -3.071235853388652e+04  -3.344621598298935e+04   3.764747158902942e+00   2.830703458659341e+00  -2.935901866543395e-01  -5.367779071670902e-05
2017-01-01T19:43:00.000  -3.068404496144286e+04  -3.344914476199850e+04   3.764209544435046e+00   2.832011184757440e+00  -2.921653393964893e-01  -5.384513394841113e-05
2017-01-01T19:43:10.000  -3.065571831015972e+04  -3.345205928393812e+04   3.763670255659811e+00   2.833319172514271e+00  -2.907387665744384e-01  -5.401265120868477e-05
2017-01-01T19:43:20.000  -3.062737857740700e+04  -3.345495953153936e+04   3.763129290835438e+00   2.834627421538377e+00  -2.893104653752818e-01  -5.418034272792389e-05
2017-01-01T19:43:30.000  -3.059902576057374e+04  -3.345784548750403e+04   3.762586648218151e+00   2.835935931434938e+00  -2.878804329808968e-01  -5.434820873685318e-05
2017-01-01T19:43:40.000  -3.057065985706743e+04  -3.346071713450390e+04   3.762042326062101e+00   2.837244701805777e+00  -2.864486665678334e-01  -5.451624946653739e-05
2017-01-01T19:43:50.000  -3.054228086458844e+04  -3.346357445515478e+04   3.761496322624816e+00   2.838553732236724e+00  -2.850151633212943e-01  -5.468446514674522e-05
2017-01-01T19:44:00.000  -3.051388878076114e+04  -3.346641743205193e+04   3.760948636159942e+00   2.839863022314597e+00  -2.835799204163594e-01  -5.485285600814709e-05
2017-01-01T19:44:10.000  -3.048548360327898e+04  -3.346924604775583e+04   3.760399264920065e+00   2.841172571620490e+00  -2.821429350253317e-01  -5.502142228145241e-05
2017-01-01T19:44:20.000  -3.045706532926366e+04  -3.347206028485593e+04   3.759848207144322e+00   2.842482379759320e+00  -2.807042042853074e-01  -5.519016420121568e-05
2017-01-01T19:44:30.000  -3.042863395590593e+04  -3.347486012590670e+04   3.759295461070769e+00   2.843792446330268e+00  -2.792637253305573e-01  -5.535908200203329e-05
2017-01-01T19:44:40.000  -3.040018948032097e+04  -3.347764555344214e+04   3.758741024933607e+00   2.845102770933436e+00  -2.778214952852212e-01  -5.552817591940234e-05
2017-01-01T19:44:50.000  -3.037173189991504e+04  -3.348041654993780e+04   3.758184896970127e+00   2.846413353152905e+00  -2.763775112817273e-01  -5.569744618754859e-05
2017-01-01T19:45:00.000  -3.034326121211379e+04  -3.348317309783943e+04   3.757627075415615e+00   2.847724192569284e+00  -2.749317704471587e-01  -5.586689304103643e-05
2017-01-01T19:45:10.000  -3.031477741436161e+04  -3.348591517956217e+04   3.757067558503255e+00   2.849035288759707e+00  -2.734842699031407e-01  -5.603651671477603e-05
2017-01-01T19:45:20.000  -3.028628050439733e+04  -3.348864277746610e+04   3.756506344469725e+00   2.850346641285189e+00  -2.720350067799766e-01  -5.620631744238177e-05
2017-01-01T19:45:30.000  -3.025777047988356e+04  -3.349135587388976e+04   3.755943431547733e+00   2.851658249707618e+00  -2.705839781976642e-01  -5.637629545837992e-05
2017-01-01T19:45:40.000  -3.022924733855537e+04  -3.349405445113636e+04   3.755378817968990e+00   2.852970113582916e+00  -2.691311812734646e-01  -5.654645099732633e-05
2017-01-01T19:45:50.000  -3.020071107756587e+04  -3.349673849153572e+04   3.754812501951237e+00   2.854282232491139e+00  -2.676766130885590e-01  -5.671678429769752e-05
2017-01-01T19:46:00.000  -3.017216169414216e+04  -3.349940797738195e+04   3.754244481711225e+00   2.855594606006276e+00  -2.662202707214293e-01  -5.688729559799311e-05
2017-01-01T19:46:10.000  -3.014359918541621e+04  -3.350206289094951e+04   3.753674755461372e+00   2.856907233704023e+00  -2.647621512392392e-01  -5.705798513773984e-05
2017-01-01T19:46:20.000  -3.011502354887942e+04  -3.350470321444924e+04   3.753103321418662e+00   2.858220115140852e+00  -2.633022517209005e-01  -5.722885315480080e-05
2017-01-01T19:46:30.000  -3.008643478200785e+04  -3.350732893006481e+04   3.752530177797329e+00   2.859533249871257e+00  -2.618405692380422e-01  -5.739989988759196e-05
2017-01-01T19:46:40.000  -3.005783288234849e+04  -3.350994001994422e+04   3.751955322810528e+00   2.860846637443758e+00  -2.603771008593727e-01  -5.757112557457460e-05
2017-01-01T19:46:50.000  -3.002921784748673e+04  -3.351253646620383e+04   3.751378754669781e+00   2.862160277402422e+00  -2.589118436490702e-01  -5.774253045443122e-05
2017-01-01T19:47:00.000  -3.000058967502951e+04  -3.351511825092898e+04   3.750800471584558e+00   2.863474169287594e+00  -2.574447946658460e-01  -5.791411476618611e-05
2017-01-01T19:47:10.000  -2.997194836257119e+04  -3.351768535617697e+04   3.750220471761571e+00   2.864788312637461e+00  -2.559759509611753e-01  -5.808587874940660e-05
2017-01-01T19:47:20.000  -2.994329390767823e+04  -3.352023776397933e+04   3.749638753404553e+00   2.866102706988757e+00  -2.545053095785629e-01  -5.825782264430309e-05
2017-01-01T19:47:30.000  -2.991462630785462e+04  -3.352277545634367e+04   3.749055314713446e+00   2.867417351878313e+00  -2.530328675516694e-01  -5.842994669193154e-05
2017-01-01T19:47:40.000  -2.988594556062937e+04  -3.352529841524645e+04   3.748470153886221e+00   2.868732246839046e+00  -2.515586219088207e-01  -5.860225113367124e-05
2017-01-01T19:47:50.000  -2.985725166317735e+04  -3.352780662266456e+04   3.747883269110986e+00   2.870047391417294e+00  -2.500825696533888e-01  -5.877473621350030e-05
2017-01-01T19:48:00.000  -2.982854461277845e+04  -3.353030006053651e+04   3.747294658575504e+00   2.871362785151782e+00  -2.486047077874913e-01  -5.894740217524125e-05
2017-01-01T19:48:10.000  -2.979982440664437e+04  -3.353277871077717e+04   3.746704320463600e+00   2.872678427581551e+00  -2.471250333030299e-01  -5.912024926360175e-05
2017-01-01T19:48:20.000  -2.977109104258985e+04  -3.353524255521964e+04   3.746112252968957e+00   2.873994318215189e+00  -2.456435432162573e-01  -5.929327772014859e-05
2017-01-01T19:48:30.000  -2.974234451836157e+04  -3.353769157567339e+04   3.745518454281326e+00   2.875310456561563e+00  -2.441602345331937e-01  -5.946648778733401e-05
2017-01-01T19:48:40.000  -2.971358483181119e+04  -3.354012575390895e+04   3.744922922590070e+00   2.876626842121885e+00  -2.426751042585150e-01  -5.963987970746055e-05
2017-01-01T19:48:50.000  -2.968481198043778e+04  -3.354254507169858e+04   3.744325656074838e+00   2.877943474410674e+00  -2.411881493720280e-01  -5.981345372541858e-05
2017-01-01T19:49:00.000  -2.965602596176522e+04  -3.354494951078221e+04   3.743726652913215e+00   2.879260352938435e+00  -2.396993668480200e-01  -5.998721008643382e-05
2017-01-01T19:49:10.000  -2.962722677325532e+04  -3.354733905287545e+04   3.743125911278972e+00   2.880577477215634e+00  -2.382087536507835e-01  -6.016114903658650e-05
2017-01-01T19:49:20.000  -2.959841441234075e+04  -3.354971367966544e+04   3.742523429342621e+00   2.881894846751145e+00  -2.367163067362225e-01  -6.033527082262900e-05
2017-01-01T19:49:30.000  -2.956958887644200e+04  -3.355207337281046e+04   3.741919205271861e+00   2.883212461051495e+00  -2.352220230527743e-01  -6.050957569187116e-05
2017-01-01T19:49:40.000  -2.954075016300184e+04  -3.355441811393688e+04   3.741313237232291e+00   2.884530319619264e+00  -2.337258995431792e-01  -6.068406389197513e-05
2017-01-01T19:49:50.000  -2.951189826950074e+04  -3.355674788463703e+04   3.740705523387642e+00   2.885848421952355e+00  -2.322279331451937e-01  -6.085873567086414e-05
2017-01-01T19:50:00.000  -2.948303319349182e+04  -3.355906266646733e+04   3.740096061900613e+00   2.887166767542404e+00  -2.307281207934681e-01  -6.103359127650980e-05
2017-01-01T19:50:10.000  -2.945415493251279e+04  -3.356136244095493e+04   3.739484850930960e+00   2.888485355878784e+00  -2.292264594149198e-01  -6.120863095746814e-05
2017-01-01T19:50:20.000  -2.942526348446778e+04  -3.356364718956876e+04   3.738871888643723e+00   2.889804186431184e+00  -2.277229459486842e-01  -6.138385496055846e-05
2017-01-01T19:50:30.000  -2.939635884716504e+04  -3.356591689375473e+04   3.738257173199288e+00   2.891123258670685e+00  -2.262175773219418e-01  -6.155926353367497e-05
2017-01-01T19:50:40.000  -2.936744101848866e+04  -3.356817153492237e+04   3.737640702757056e+00   2.892442572061892e+00  -2.247103504588629e-01  -6.173485692474377e-05
2017-01-01T19:50:50.000  -2.933850999573376e+04  -3.357041109449686e+04   3.737022475461278e+00   2.893762126093282e+00  -2.232012622459439e-01  -6.191063538576299e-05
2017-01-01T19:51:00.000  -2.930956577626953e+04  -3.357263555386686e+04   3.736402489455160e+00   2.895081920246915e+00  -2.216903095665326e-01  -6.208659916877558e-05
2017-01-01T19:51:10.000  -2.928060835738940e+04  -3.357484489439652e+04   3.735780742877696e+00   2.896401954005273e+00  -2.201774892930202e-01  -6.226274852678075e-05
2017-01-01T19:51:20.000  -2.925163773668420e+04  -3.357703909739474e+04   3.735157233871461e+00   2.897722226834180e+00  -2.186627983061570e-01  -6.243908371147151e-05
2017-01-01T19:51:30.000  -2.922265391176563e+04  -3.357921814413845e+04   3.734531960576902e+00   2.899042738195452e+00  -2.171462334807554e-01  -6.261560497491146e-05
